OBJECT_NAME,OBJECT_ID,EPOCH,MEAN_MOTION,ECCENTRICITY,INCLINATION,RA_OF_ASC_NODE,ARG_OF_PERICENTER,MEAN_ANOMALY,EPHEMERIS_TYPE,CLASSIFICATION_TYPE,NORAD_CAT_ID,ELEMENT_SET_NO,REV_AT_EPOCH,BSTAR,MEAN_MOTION_DOT,MEAN_MOTION_DDOT
STARLINK-3709,2022-029Q,2026-07-12T08:00:01.999872,15.33547776,.00012253,53.1586,237.4753,90.7762,173.1057,0,U,52102,999,576,-.38809893E-3,-.13114E-3,0
STARLINK-3705,2022-029R,2026-07-12T08:00:01.999872,15.35282290,.00007648,53.1606,237.4332,82.7337,348.3952,0,U,52103,999,575,.42094326E-3,.14276E-3,0
STARLINK-3706,2022-029T,2026-07-12T08:00:01.999872,15.32408039,.00017666,53.1606,237.5205,48.9584,12.7057,0,U,52105,999,565,.14685596E-2,.46516E-3,0
STARLINK-3670,2022-029U,2026-07-12T04:07:22.221408,15.34394657,.00010035,53.1600,246.4358,79.7289,280.3826,0,U,52106,999,23948,.25695341E-4,.492E-5,0
STARLINK-3658,2022-029V,2026-07-12T08:00:01.999872,15.30169832,.00007075,53.1609,237.6414,61.3212,323.8218,0,U,52107,999,580,.39811447E-3,.11439E-3,0
STARLINK-3698,2022-029W,2026-07-12T08:00:01.999872,15.33553747,.00013485,53.1712,237.3750,76.0520,45.2528,0,U,52108,999,550,-.91617361E-3,-.30387E-3,0
STARLINK-3687,2022-029Y,2026-07-12T08:00:01.999872,15.33626954,.00011561,53.1706,237.4501,76.0805,26.2882,0,U,52110,999,575,-.39792595E-2,-.129333E-2,0
STARLINK-3708,2022-029Z,2026-07-12T08:00:01.999872,15.34080650,.00020857,53.1591,237.4945,86.1036,73.3034,0,U,52111,999,560,.13997642E-2,.46735E-3,0
STARLINK-3734,2022-029AA,2026-07-12T08:00:01.999872,15.66652625,.00009102,53.2162,217.8402,69.9557,135.1808,0,U,52112,999,592,.26400687E-2,.291891E-2,0
STARLINK-3736,2022-029AB,2026-07-12T08:00:01.999872,15.33554596,.00014553,53.1606,236.9895,81.8889,18.2702,0,U,52113,999,580,-.69945721E-3,-.2331E-3,0
STARLINK-3737,2022-029AC,2026-07-12T08:00:01.999872,15.33526493,.0000795,53.1588,237.2745,78.0043,174.2293,0,U,52114,999,580,-.18609036E-3,-.6483E-4,0
STARLINK-3685,2022-029AD,2026-07-10T08:00:03.000384,15.35411900,.0001193,53.1596,244.9989,74.7884,137.0388,0,U,52115,999,580,-.44005212E-3,-.15704E-3,0
STARLINK-3735,2022-029AE,2026-07-12T08:00:01.999872,15.33560267,.00013011,53.1595,237.1548,77.9931,275.7646,0,U,52116,999,580,-.61647381E-3,-.20599E-3,0
STARLINK-3738,2022-029AF,2026-07-12T08:00:01.999872,15.33556124,.00013913,53.1718,237.2937,84.3674,299.4587,0,U,52117,999,581,-.90261331E-3,-.29946E-3,0
STARLINK-3743,2022-029AG,2026-07-12T08:00:01.999872,15.34313099,.00015968,53.1588,237.3835,115.6149,159.7543,0,U,52118,999,580,.78989271E-3,.26332E-3,0
STARLINK-3558,2022-029AH,2026-07-11T00:00:02.000160,15.35382254,.00007818,53.1598,242.0923,82.9236,186.6408,0,U,52119,999,581,.15195256E-2,.52966E-3,0
STARLINK-3534,2022-029AJ,2026-07-11T15:33:50.093280,15.34392349,.0001179,53.1592,238.7289,79.0902,281.0233,0,U,52120,999,23956,.1713891E-5,-.318E-5,0
STARLINK-3678,2022-029AK,2026-07-11T02:32:50.902080,15.08831539,.00011423,53.1577,234.8417,90.0788,270.0334,0,U,52121,999,23955,.22167137E-4,.65E-6,0
STARLINK-3726,2022-029AL,2026-07-12T08:00:01.999872,15.31914233,.00009528,53.1596,237.4952,135.9262,164.7553,0,U,52122,999,581,.17473391E-2,.54621E-3,0
STARLINK-3725,2022-029AM,2026-07-12T03:23:16.305216,15.08831315,.00010979,53.1583,230.0092,89.4476,270.6641,0,U,52123,999,23972,.3802972E-5,-.227E-5,0
STARLINK-3727,2022-029AP,2026-07-12T02:07:44.531040,15.08835824,.00009815,53.1595,230.4247,82.5402,277.5701,0,U,52125,999,23971,.57350279E-4,.625E-5,0
STARLINK-3732,2022-029AQ,2026-07-11T02:27:33.130656,15.08828330,.000116,53.1580,234.8581,84.7855,275.3268,0,U,52126,999,23955,-.224707E-6,-.291E-5,0
STARLINK-3715,2022-029AR,2026-07-12T03:37:49.685664,15.08839065,.00007734,53.1570,230.1429,82.6738,277.4341,0,U,52127,999,23971,.28619946E-4,.168E-5,0
STARLINK-3661,2022-029AT,2026-07-11T11:33:21.845376,15.08837616,.00009103,53.1582,233.1520,77.0304,283.0789,0,U,52129,999,23962,.70168941E-4,.829E-5,0
STARLINK-3711,2022-029AV,2026-07-11T13:55:20.144928,15.19655087,.00010233,53.2133,224.2587,339.3289,20.7666,0,U,52131,999,23976,.64737504E-3,.13682E-3,0
STARLINK-3718,2022-029AW,2026-07-11T03:41:45.780576,15.08807867,.0001142,53.1609,234.6268,97.2802,262.8319,0,U,52132,999,23957,.20362395E-3,.2952E-4,0
STARLINK-3707,2022-029AX,2026-07-12T01:35:56.546016,15.08826942,.0000895,53.1594,230.5201,103.9207,256.1884,0,U,52133,999,23971,-.35031403E-4,-.845E-5,0
STARLINK-3721,2022-029AY,2026-07-12T01:41:14.676864,15.08836794,.00013052,53.1581,230.5082,82.0335,278.0805,0,U,52134,999,23971,.46759385E-4,.456E-5,0
STARLINK-3720,2022-029BA,2026-07-12T03:06:00.873792,15.08833416,.00011871,53.1587,230.2410,81.4099,278.7027,0,U,52136,999,23972,-.604326E-6,-.298E-5,0
STARLINK-3733,2022-029BB,2026-07-11T10:56:16.135584,15.08844969,.00008082,53.1583,233.2685,86.4890,273.6194,0,U,52137,999,23962,.26819631E-4,.139E-5,0
