STARLINK-3709           
1 52102U 22029Q   26193.33335648 -.00013114  00000+0 -38810-3 0  9995
2 52102  53.1586 237.4753 0001225  90.7762 173.1057 15.33547776  5762
STARLINK-3705           
1 52103U 22029R   26193.33335648  .00014276  00000+0  42094-3 0  9993
2 52103  53.1606 237.4332 0000764  82.7337 348.3952 15.35282290  5753
STARLINK-3706           
1 52105U 22029T   26193.33335648  .00046516  00000+0  14686-2 0  9992
2 52105  53.1606 237.5205 0001766  48.9584  12.7057 15.32408039  5651
STARLINK-3670           
1 52106U 22029U   26193.17178497  .00000492  00000+0  25695-4 0  9999
2 52106  53.1600 246.4358 0001003  79.7289 280.3826 15.34394657239481
STARLINK-3658           
1 52107U 22029V   26193.33335648  .00011439  00000+0  39811-3 0  9998
2 52107  53.1609 237.6414 0000707  61.3212 323.8218 15.30169832  5805
STARLINK-3698           
1 52108U 22029W   26193.33335648 -.00030387  00000+0 -91617-3 0  9996
2 52108  53.1712 237.3750 0001348  76.0520  45.2528 15.33553747  5509
STARLINK-3687           
1 52110U 22029Y   26193.33335648 -.00129333  00000+0 -39793-2 0  9995
2 52110  53.1706 237.4501 0001156  76.0805  26.2882 15.33626954  5753
STARLINK-3708           
1 52111U 22029Z   26193.33335648  .00046735  00000+0  13998-2 0  9997
2 52111  53.1591 237.4945 0002085  86.1036  73.3034 15.34080650  5602
STARLINK-3734           
1 52112U 22029AA  26193.33335648  .00291891  00000+0  26401-2 0  9996
2 52112  53.2162 217.8402 0000910  69.9557 135.1808 15.66652625  5923
STARLINK-3736           
1 52113U 22029AB  26193.33335648 -.00023310  00000+0 -69946-3 0  9990
2 52113  53.1606 236.9895 0001455  81.8889  18.2702 15.33554596  5803
STARLINK-3737           
1 52114U 22029AC  26193.33335648 -.00006483  00000+0 -18609-3 0  9993
2 52114  53.1588 237.2745 0000795  78.0043 174.2293 15.33526493  5800
STARLINK-3685           
1 52115U 22029AD  26191.33336806 -.00015704  00000+0 -44005-3 0  9994
2 52115  53.1596 244.9989 0001193  74.7884 137.0388 15.35411900  5804
STARLINK-3735           
1 52116U 22029AE  26193.33335648 -.00020599  00000+0 -61647-3 0  9999
2 52116  53.1595 237.1548 0001301  77.9931 275.7646 15.33560267  5804
STARLINK-3738           
1 52117U 22029AF  26193.33335648 -.00029946  00000+0 -90261-3 0  9999
2 52117  53.1718 237.2937 0001391  84.3674 299.4587 15.33556124  5815
STARLINK-3743           
1 52118U 22029AG  26193.33335648  .00026332  00000+0  78989-3 0  9997
2 52118  53.1588 237.3835 0001596 115.6149 159.7543 15.34313099  5803
STARLINK-3558           
1 52119U 22029AH  26192.00002315  .00052966  00000+0  15195-2 0  9994
2 52119  53.1598 242.0923 0000781  82.9236 186.6408 15.35382254  5814
STARLINK-3534           
1 52120U 22029AJ  26192.64849645 -.00000318  00000+0  17139-5 0  9999
2 52120  53.1592 238.7289 0001179  79.0902 281.0233 15.34392349239568
STARLINK-3678           
1 52121U 22029AK  26192.10614470  .00000065  00000+0  22167-4 0  9991
2 52121  53.1577 234.8417 0001142  90.0788 270.0334 15.08831539239556
STARLINK-3726           
1 52122U 22029AL  26193.33335648  .00054621  00000+0  17473-2 0  9994
2 52122  53.1596 237.4952 0000952 135.9262 164.7553 15.31914233  5816
STARLINK-3725           
1 52123U 22029AM  26193.14116094 -.00000227  00000+0  38030-5 0  9995
2 52123  53.1583 230.0092 0001097  89.4476 270.6641 15.08831315239725
STARLINK-3727           
1 52125U 22029AP  26193.08870985  .00000625  00000+0  57350-4 0  9992
2 52125  53.1595 230.4247 0000981  82.5402 277.5701 15.08835824239711
STARLINK-3732           
1 52126U 22029AQ  26192.10246679 -.00000291  00000+0 -22471-6 0  9991
2 52126  53.1580 234.8581 0001160  84.7855 275.3268 15.08828330239551
STARLINK-3715           
1 52127U 22029AR  26193.15126951  .00000168  00000+0  28620-4 0  9999
2 52127  53.1570 230.1429 0000773  82.6738 277.4341 15.08839065239717
STARLINK-3661           
1 52129U 22029AT  26192.48150284  .00000829  00000+0  70169-4 0  9991
2 52129  53.1582 233.1520 0000910  77.0304 283.0789 15.08837616239626
STARLINK-3711           
1 52131U 22029AV  26192.58009427  .00013682  00000+0  64738-3 0  9992
2 52131  53.2133 224.2587 0001023 339.3289  20.7666 15.19655087239765
STARLINK-3718           
1 52132U 22029AW  26192.15400209  .00002952  00000+0  20362-3 0  9992
2 52132  53.1609 234.6268 0001142  97.2802 262.8319 15.08807867239573
STARLINK-3707           
1 52133U 22029AX  26193.06662669 -.00000845  00000+0 -35031-4 0  9995
2 52133  53.1594 230.5201 0000895 103.9207 256.1884 15.08826942239711
STARLINK-3721           
1 52134U 22029AY  26193.07030876  .00000456  00000+0  46759-4 0  9991
2 52134  53.1581 230.5082 0001305  82.0335 278.0805 15.08836794239713
STARLINK-3720           
1 52136U 22029BA  26193.12917678 -.00000298  00000+0 -60433-6 0  9996
2 52136  53.1587 230.2410 0001187  81.4099 278.7027 15.08833416239723
STARLINK-3733           
1 52137U 22029BB  26192.45574231  .00000139  00000+0  26820-4 0  9998
2 52137  53.1583 233.2685 0000808  86.4890 273.6194 15.08844969239623
